[{"OBJECT_NAME":"STARLINK-36046","OBJECT_ID":"2025-278V","EPOCH":"2026-03-09T11:16:24.250368","MEAN_MOTION":15.27588727,"ECCENTRICITY":0.00013477,"INCLINATION":43.0007,"RA_OF_ASC_NODE":115.7636,"ARG_OF_PERICENTER":277.2176,"MEAN_ANOMALY":82.8523,"EPHEMERIS_TYPE":0,"CLASSIFICATION_TYPE":"U","NORAD_CAT_ID":66810,"ELEMENT_SET_NO":999,"REV_AT_EPOCH":1517,"BSTAR":0.0011172214,"MEAN_MOTION_DOT":0.00030617,"MEAN_MOTION_DDOT":0},{"OBJECT_NAME":"CZ-6A DEB","OBJECT_ID":"2023-168D","EPOCH":"2026-03-09T19:03:52.964928","MEAN_MOTION":15.28240044,"ECCENTRICITY":0.00013417,"INCLINATION":97.7802,"RA_OF_ASC_NODE":98.3362,"ARG_OF_PERICENTER":174.0661,"MEAN_ANOMALY":186.0594,"EPHEMERIS_TYPE":0,"CLASSIFICATION_TYPE":"U","NORAD_CAT_ID":58202,"ELEMENT_SET_NO":999,"REV_AT_EPOCH":12922,"BSTAR":0.0014474773,"MEAN_MOTION_DOT":0.00039923,"MEAN_MOTION_DDOT":0}]
